OBJECT B                
1 51825U 22019B   24354.80171092  .00018279  00000+0  61368-3 0  9994
2 51825  97.4087  64.7247 0010948 307.0401  52.9838 15.30859257155534
